H1 CPF  1  DGF 2022 05 27 09  6471 larets     NONE      
H2   304206 5557    27944 2022 05 20 00 00 00 2022 05 27 00 00 00    30 1 1  0 0 0
H5  0.0650
H9
10 0 59725  68400.000000  0       2228992.926      -5905467.261       3179606.501
10 0 59725  68430.000000  0       2216489.684      -6013932.505       2979641.248
10 0 59725  68460.000000  0       2201283.997      -6116255.936       2776640.724
10 0 59725  68490.000000  0       2183418.371      -6212322.421       2570811.727
10 0 59725  68520.000000  0       2162938.503      -6302023.374       2362363.939
10 0 59725  68550.000000  0       2139893.205      -6385256.878       2151509.719
10 0 59725  68580.000000  0       2114334.328      -6461927.813       1938463.887
10 0 59725  68610.000000  0       2086316.680      -6531947.964       1723443.496
10 0 59725  68640.000000  0       2055897.939      -6595236.132       1506667.613
10 0 59725  68670.000000  0       2023138.562      -6651718.225       1288357.086
10 0 59725  68700.000000  0       1988101.694      -6701327.348       1068734.319
10 0 59725  68730.000000  0       1950853.068      -6744003.884        848023.048
10 0 59725  68760.000000  0       1911460.910      -6779695.568        626448.105
10 0 59725  68790.000000  0       1869995.842      -6808357.559        404235.184
10 0 59725  68820.000000  0       1826530.772      -6829952.495        181610.608
10 0 59725  68850.000000  0       1781140.787      -6844450.546        -41198.920
10 0 59725  68880.000000  0       1733903.042      -6851829.443       -263966.547
10 0 59725  68910.000000  0       1684896.642      -6852074.510       -486465.514
10 0 59725  68940.000000  0       1634202.529      -6845178.676       -708469.389
10 0 59725  68970.000000  0       1581903.364      -6831142.486       -929752.301
10 0 59725  69000.000000  0       1528083.406      -6809974.099      -1150089.168
10 0 59725  69030.000000  0       1472828.397      -6781689.289      -1369255.928
10 0 59725  69060.000000  0       1416225.434      -6746311.435      -1587029.770
10 0 59725  69090.000000  0       1358362.846      -6703871.495      -1803189.371
10 0 59725  69120.000000  0       1299330.065      -6654407.974      -2017515.119
10 0 59725  69150.000000  0       1239217.506      -6597966.878      -2229789.342
10 0 59725  69180.000000  0       1178116.440      -6534601.663      -2439796.531
10 0 59725  69210.000000  0       1116118.873      -6464373.179      -2647323.551
10 0 59725  69240.000000  0       1053317.420      -6387349.605      -2852159.866
10 0 59725  69270.000000  0        989805.174      -6303606.378      -3054097.744
10 0 59725  69300.000000  0        925675.586      -6213226.109      -3252932.474
10 0 59725  69330.000000  0        861022.330      -6116298.496      -3448462.568
10 0 59725  69360.000000  0        795939.184      -6012920.226      -3640489.969
10 0 59725  69390.000000  0        730519.899      -5903194.871      -3828820.244
10 0 59725  69420.000000  0        664858.076      -5787232.775      -4013262.781
10 0 59725  69450.000000  0        599047.038      -5665150.933      -4193630.976
10 0 59725  69480.000000  0        533179.714      -5537072.867      -4369742.417
10 0 59725  69510.000000  0        467348.506      -5403128.495      -4541419.064
10 0 59725  69540.000000  0        401645.181      -5263453.986      -4708487.421
10 0 59725  69570.000000  0        336160.741      -5118191.625      -4870778.707
10 0 59725  69600.000000  0        270985.314      -4967489.656      -5028129.020
10 0 59725  69630.000000  0        206208.032      -4811502.124      -5180379.498
10 0 59725  69660.000000  0        141916.920      -4650388.717      -5327376.473
10 0 59725  69690.000000  0         78198.782      -4484314.590      -5468971.618
10 0 59725  69720.000000  0         15139.096      -4313450.196      -5605022.089
10 0 59725  69750.000000  0        -47178.099      -4137971.101      -5735390.663
10 0 59725  69780.000000  0       -108670.306      -3958057.806      -5859945.866
10 0 59725  69810.000000  0       -169256.671      -3773895.557      -5978562.097
10 0 59725  69840.000000  0       -228858.082      -3585674.148      -6091119.750
10 0 59725  69870.000000  0       -287397.268      -3393587.729      -6197505.324
10 0 59725  69900.000000  0       -344798.892      -3197834.605      -6297611.535
10 0 59725  69930.000000  0       -400989.645      -2998617.025      -6391337.412
10 0 59725  69960.000000  0       -455898.332      -2796140.975      -6478588.391
10 0 59725  69990.000000  0       -509455.956      -2590615.972      -6559276.409
10 0 59725  70020.000000  0       -561595.804      -2382254.839      -6633319.979
10 0 59725  70050.000000  0       -612253.524      -2171273.495      -6700644.269
10 0 59725  70080.000000  0       -661367.197      -1957890.733      -6761181.173
10 0 59725  70110.000000  0       -708877.415      -1742327.994      -6814869.377
10 0 59725  70140.000000  0       -754727.350      -1524809.147      -6861654.417
10 0 59725  70170.000000  0       -798862.813      -1305560.250      -6901488.730
10 0 59725  70200.000000  0       -841232.322      -1084809.327      -6934331.704
10 0 59725  70230.000000  0       -881787.156       -862786.130      -6960149.712
10 0 59725  70260.000000  0       -920481.412       -639721.905      -6978916.146
10 0 59725  70290.000000  0       -957272.055       -415849.156      -6990611.440
10 0 59725  70320.000000  0       -992118.965       -191401.412      -6995223.091
10 0 59725  70350.000000  0      -1024984.979         33387.013      -6992745.669
10 0 59725  70380.000000  0      -1055835.933        258281.252      -6983180.835
10 0 59725  70410.000000  0      -1084640.697        483046.130      -6966537.336
10 0 59725  70440.000000  0      -1111371.208        707446.406      -6942831.009
10 0 59725  70470.000000  0      -1136002.493        931247.017      -6912084.763
10 0 59725  70500.000000  0      -1158512.699       1154213.317      -6874328.562
10 0 59725  70530.000000  0      -1178883.111       1376111.318      -6829599.398
10 0 59725  70560.000000  0      -1197098.167       1596707.928      -6777941.262
10 0 59725  70590.000000  0      -1213145.471       1815771.193      -6719405.115
10 0 59725  70620.000000  0      -1227015.801       2033070.536      -6654048.843
10 0 59725  70650.000000  0      -1238703.114       2248377.005      -6581937.211
10 0 59725  70680.000000  0      -1248204.544       2461463.506      -6503141.809
10 0 59725  70710.000000  0      -1255520.401       2672105.052      -6417740.993
10 0 59725  70740.000000  0      -1260654.162       2880078.996      -6325819.808
10 0 59725  70770.000000  0      -1263612.464       3085165.271      -6227469.919
10 0 59725  70800.000000  0      -1264405.077       3287146.620      -6122789.523
10 0 59725  70830.000000  0      -1263044.896       3485808.831      -6011883.263
10 0 59725  70860.000000  0      -1259547.905       3680940.962      -5894862.137
10 0 59725  70890.000000  0      -1253933.157       3872335.577      -5771843.399
10 0 59725  70920.000000  0      -1246222.736       4059788.966      -5642950.449
10 0 59725  70950.000000  0      -1236441.729       4243101.371      -5508312.720
10 0 59725  70980.000000  0      -1224618.178       4422077.208      -5368065.560
10 0 59725  71010.000000  0      -1210783.041       4596525.284      -5222350.102
10 0 59725  71040.000000  0      -1194970.145       4766259.004      -5071313.131
10 0 59725  71070.000000  0      -1177216.130       4931096.589      -4915106.944
10 0 59725  71100.000000  0      -1157560.398       5090861.273      -4753889.203
10 0 59725  71130.000000  0      -1136045.050       5245381.505      -4587822.782
10 0 59725  71160.000000  0      -1112714.826       5394491.142      -4417075.611
10 0 59725  71190.000000  0      -1087617.035       5538029.642      -4241820.509
10 0 59725  71220.000000  0      -1060801.487       5675842.244      -4062235.013
10 0 59725  71250.000000  0      -1032320.416       5807780.144      -3878501.208
10 0 59725  71280.000000  0      -1002228.408       5933700.673      -3690805.538
10 0 59725  71310.000000  0       -970582.315       6053467.456      -3499338.631
10 0 59725  71340.000000  0       -937441.173       6166950.578      -3304295.102
10 0 59725  71370.000000  0       -902866.117       6274026.737      -3105873.360
10 0 59725  71400.000000  0       -866920.286       6374579.393      -2904275.402
10 0 59725  71430.000000  0       -829668.734       6468498.905      -2699706.611
10 0 59725  71460.000000  0       -791178.332       6555682.666      -2492375.539
10 0 59725  71490.000000  0       -751517.669       6636035.219      -2282493.694
10 0 59725  71520.000000  0       -710756.955       6709468.377      -2070275.320
10 0 59725  71550.000000  0       -668967.916       6775901.331      -1855937.180
10 0 59725  71580.000000  0       -626223.688       6835260.745      -1639698.324
10 0 59725  71610.000000  0       -582598.708       6887480.855      -1421779.868
10 0 59725  71640.000000  0       -538168.606       6932503.546      -1202404.753
10 0 59725  71670.000000  0       -493010.089       6970278.428       -981797.518
10 0 59725  71700.000000  0       -447200.830       7000762.901       -760184.057
10 0 59725  71730.000000  0       -400819.354       7023922.208       -537791.380
10 0 59725  71760.000000  0       -353944.919       7039729.484       -314847.376
10 0 59725  71790.000000  0       -306657.403       7048165.791        -91580.566
10 0 59725  71820.000000  0       -259037.178       7049220.148        131780.140
10 0 59725  71850.000000  0       -211165.001       7042889.547        355005.690
10 0 59725  71880.000000  0       -163121.885       7029178.959        577867.136
10 0 59725  71910.000000  0       -114988.988       7008101.331        800135.878
10 0 59725  71940.000000  0        -66847.487       6979677.575       1021583.914
10 0 59725  71970.000000  0        -18778.465       6943936.540       1241984.079
99
